start=new Date('2022-01-15T00:00:00.000Z').valueOf();
sats=[{"REF_FRAME":"TEME","MEAN_MOTION":"15.06398132","BSTAR":"0.00006896000000","COUNTRY_CODE":"US","PERIAPSIS":"545.748","TLE_LINE2":"2 46791  53.0529 281.8114 0002124  67.4695 292.6518 15.06398132 68368","RCS_SIZE":"LARGE","INCLINATION":"53.0529","SITE":"AFETR","ARG_OF_PERICENTER":"67.4695","MEAN_MOTION_DOT":"0.00000745","CENTER_NAME":"EARTH","OBJECT_ID":"2020-074BE","LAUNCH_DATE":"2020-10-24","MEAN_ELEMENT_THEORY":"SGP4","DECAY_DATE":null,"SEMIMAJOR_AXIS":"6925.354","MEAN_MOTION_DDOT":"0.0000000000000","EPOCH":"2022-01-14T21:23:24.307584","CLASSIFICATION_TYPE":"U","ELEMENT_SET_NO":"999","ECCENTRICITY":"0.00021240","RA_OF_ASC_NODE":"281.8114","NORAD_CAT_ID":"46791","MEAN_ANOMALY":"292.6518","FILE":"3273247","REV_AT_EPOCH":"6836","EPHEMERIS_TYPE":"0","OBJECT_NAME":"STARLINK-1933","OBJECT_TYPE":"PAYLOAD","APOAPSIS":"548.690","TLE_LINE1":"1 46791U 20074BE  22014.89125356  .00000745  00000-0  68960-4 0  9997","GP_ID":"193878037","TIME_SYSTEM":"UTC","PERIOD":"95.592"},{"CENTER_NAME":"EARTH","MEAN_MOTION_DOT":"0.00000452","ARG_OF_PERICENTER":"66.4551","OBJECT_ID":"2020-074BF","LAUNCH_DATE":"2020-10-24","DECAY_DATE":null,"MEAN_ELEMENT_THEORY":"SGP4","MEAN_MOTION_DDOT":"0.0000000000000","SEMIMAJOR_AXIS":"6925.343","CLASSIFICATION_TYPE":"U","EPOCH":"2022-01-14T22:01:52.622688","REF_FRAME":"TEME","MEAN_MOTION":"15.06401737","BSTAR":"0.00004925100000","COUNTRY_CODE":"US","PERIAPSIS":"545.719","TLE_LINE2":"2 46792  53.0542 271.6908 0002150  66.4551 293.6664 15.06401737 68506","INCLINATION":"53.0542","RCS_SIZE":"LARGE","SITE":"AFETR","OBJECT_NAME":"STARLINK-1934","APOAPSIS":"548.697","OBJECT_TYPE":"PAYLOAD","TLE_LINE1":"1 46792U 20074BF  22014.91797017  .00000452  00000-0  49251-4 0  9997","GP_ID":"193878287","TIME_SYSTEM":"UTC","PERIOD":"95.592","ELEMENT_SET_NO":"999","ECCENTRICITY":"0.00021500","NORAD_CAT_ID":"46792","RA_OF_ASC_NODE":"271.6908","FILE":"3273247","MEAN_ANOMALY":"293.6664","REV_AT_EPOCH":"6850","EPHEMERIS_TYPE":"0"},{"CLASSIFICATION_TYPE":"U","EPOCH":"2022-01-14T22:42:59.982048","SEMIMAJOR_AXIS":"6925.329","MEAN_MOTION_DDOT":"0.0000000000000","DECAY_DATE":null,"MEAN_ELEMENT_THEORY":"SGP4","LAUNCH_DATE":"2020-10-24","OBJECT_ID":"2020-074BG","CENTER_NAME":"EARTH","MEAN_MOTION_DOT":"0.00000522","ARG_OF_PERICENTER":"64.1454","SITE":"AFETR","RCS_SIZE":"LARGE","INCLINATION":"53.0545","TLE_LINE2":"2 46793  53.0545 281.5712 0002020  64.1454 295.9743 15.06406518 68365","PERIAPSIS":"545.795","COUNTRY_CODE":"US","BSTAR":"0.00005394600000","MEAN_MOTION":"15.06406518","REF_FRAME":"TEME","PERIOD":"95.592","TIME_SYSTEM":"UTC","TLE_LINE1":"1 46793U 20074BG  22014.94652757  .00000522  00000-0  53946-4 0  9996","GP_ID":"193879538","OBJECT_TYPE":"PAYLOAD","APOAPSIS":"548.592","OBJECT_NAME":"STARLINK-1941","EPHEMERIS_TYPE":"0","REV_AT_EPOCH":"6836","FILE":"3273247","MEAN_ANOMALY":"295.9743","NORAD_CAT_ID":"46793","RA_OF_ASC_NODE":"281.5712","ECCENTRICITY":"0.00020200","ELEMENT_SET_NO":"999"},{"TLE_LINE2":"2 46794  53.0547 281.8368 0002078  65.8163 294.3043 15.06392602 68360","PERIAPSIS":"545.797","SITE":"AFETR","RCS_SIZE":"LARGE","INCLINATION":"53.0547","MEAN_MOTION":"15.06392602","REF_FRAME":"TEME","COUNTRY_CODE":"US","BSTAR":"0.00007406100000","EPOCH":"2022-01-14T21:18:05.177952","CLASSIFICATION_TYPE":"U","SEMIMAJOR_AXIS":"6925.371","MEAN_MOTION_DDOT":"0.0000000000000","OBJECT_ID":"2020-074BH","ARG_OF_PERICENTER":"65.8163","MEAN_MOTION_DOT":"0.00000821","CENTER_NAME":"EARTH","MEAN_ELEMENT_THEORY":"SGP4","DECAY_DATE":null,"LAUNCH_DATE":"2020-10-24","MEAN_ANOMALY":"294.3043","FILE":"3273247","REV_AT_EPOCH":"6836","NORAD_CAT_ID":"46794","RA_OF_ASC_NODE":"281.8368","EPHEMERIS_TYPE":"0","ELEMENT_SET_NO":"999","ECCENTRICITY":"0.00020780","TIME_SYSTEM":"UTC","GP_ID":"193879789","TLE_LINE1":"1 46794U 20074BH  22014.88755993  .00000821  00000-0  74061-4 0  9999","PERIOD":"95.593","OBJECT_NAME":"STARLINK-1942","APOAPSIS":"548.675","OBJECT_TYPE":"PAYLOAD"},{"CENTER_NAME":"EARTH","MEAN_MOTION_DOT":"0.00003150","ARG_OF_PERICENTER":"71.7905","OBJECT_ID":"2020-074BK","LAUNCH_DATE":"2020-10-24","DECAY_DATE":null,"MEAN_ELEMENT_THEORY":"SGP4","SEMIMAJOR_AXIS":"6925.328","MEAN_MOTION_DDOT":"0.0000000000000","CLASSIFICATION_TYPE":"U","EPOCH":"2022-01-14T22:17:48.507360","REF_FRAME":"TEME","MEAN_MOTION":"15.06406602","COUNTRY_CODE":"US","BSTAR":"0.00023023000000","PERIAPSIS":"545.909","TLE_LINE2":"2 46796  53.0549 271.6461 0001854  71.7905 288.3286 15.06406602 68500","INCLINATION":"53.0549","RCS_SIZE":"LARGE","SITE":"AFETR","OBJECT_NAME":"STARLINK-1944","APOAPSIS":"548.477","OBJECT_TYPE":"PAYLOAD","TLE_LINE1":"1 46796U 20074BK  22014.92903365  .00003150  00000-0  23023-3 0  9993","GP_ID":"193878537","TIME_SYSTEM":"UTC","PERIOD":"95.592","ELEMENT_SET_NO":"999","ECCENTRICITY":"0.00018540","NORAD_CAT_ID":"46796","RA_OF_ASC_NODE":"271.6461","FILE":"3273247","REV_AT_EPOCH":"6850","MEAN_ANOMALY":"288.3286","EPHEMERIS_TYPE":"0"},{"APOAPSIS":"382.332","OBJECT_TYPE":"PAYLOAD","OBJECT_NAME":"STARLINK-1947","PERIOD":"92.185","TLE_LINE1":"1 46797U 20074BL  22014.84261005  .00238112  00000-0  25979-2 0  9992","GP_ID":"193878787","TIME_SYSTEM":"UTC","ECCENTRICITY":"0.00010050","ELEMENT_SET_NO":"999","EPHEMERIS_TYPE":"0","NORAD_CAT_ID":"46797","RA_OF_ASC_NODE":"216.3756","MEAN_ANOMALY":"215.9330","FILE":"3273247","REV_AT_EPOCH":"6928","LAUNCH_DATE":"2020-10-24","DECAY_DATE":null,"MEAN_ELEMENT_THEORY":"SGP4","CENTER_NAME":"EARTH","MEAN_MOTION_DOT":"0.00238112","ARG_OF_PERICENTER":"144.1751","OBJECT_ID":"2020-074BL","SEMIMAJOR_AXIS":"6759.787","MEAN_MOTION_DDOT":"0.0000000000000","CLASSIFICATION_TYPE":"U","EPOCH":"2022-01-14T20:13:21.508320","BSTAR":"0.00259790000000","COUNTRY_CODE":"US","REF_FRAME":"TEME","MEAN_MOTION":"15.62079815","INCLINATION":"53.0522","RCS_SIZE":"LARGE","SITE":"AFETR","PERIAPSIS":"380.973","TLE_LINE2":"2 46797  53.0522 216.3756 0001005 144.1751 215.9330 15.62079815 69283"},{"ECCENTRICITY":"0.00017410","ELEMENT_SET_NO":"999","EPHEMERIS_TYPE":"0","MEAN_ANOMALY":"288.7440","FILE":"3272874","REV_AT_EPOCH":"6809","NORAD_CAT_ID":"46798","RA_OF_ASC_NODE":"298.5925","APOAPSIS":"548.439","OBJECT_TYPE":"PAYLOAD","OBJECT_NAME":"STARLINK-1948","PERIOD":"95.593","TIME_SYSTEM":"UTC","TLE_LINE1":"1 46798U 20074BM  22014.49637795  .00000684  00000-0  64826-4 0  9994","GP_ID":"193847918","BSTAR":"0.00006482600000","COUNTRY_CODE":"US","MEAN_MOTION":"15.06393442","REF_FRAME":"TEME","SITE":"AFETR","INCLINATION":"53.0552","RCS_SIZE":"LARGE","TLE_LINE2":"2 46798  53.0552 298.5925 0001741  71.3737 288.7440 15.06393442 68090","PERIAPSIS":"546.028","DECAY_DATE":null,"MEAN_ELEMENT_THEORY":"SGP4","LAUNCH_DATE":"2020-10-24","OBJECT_ID":"2020-074BM","CENTER_NAME":"EARTH","ARG_OF_PERICENTER":"71.3737","MEAN_MOTION_DOT":"0.00000684","CLASSIFICATION_TYPE":"U","EPOCH":"2022-01-14T11:54:47.054880","MEAN_MOTION_DDOT":"0.0000000000000","SEMIMAJOR_AXIS":"6925.369"},{"ELEMENT_SET_NO":"999","ECCENTRICITY":"0.00024970","RA_OF_ASC_NODE":"261.7033","NORAD_CAT_ID":"47122","FILE":"3273247","REV_AT_EPOCH":"6352","MEAN_ANOMALY":"292.0754","EPHEMERIS_TYPE":"0","OBJECT_NAME":"STARLINK-1777","OBJECT_TYPE":"PAYLOAD","APOAPSIS":"548.947","GP_ID":"193879827","TLE_LINE1":"1 47122U 20088A   22014.91520866  .00001812  00000-0  14056-3 0  9991","TIME_SYSTEM":"UTC","PERIOD":"95.592","REF_FRAME":"TEME","MEAN_MOTION":"15.06398730","BSTAR":"0.00014056000000","COUNTRY_CODE":"US","PERIAPSIS":"545.488","TLE_LINE2":"2 47122  53.0548 261.7033 0002497  68.0501 292.0754 15.06398730 63524","RCS_SIZE":"LARGE","INCLINATION":"53.0548","SITE":"AFETR","CENTER_NAME":"EARTH","ARG_OF_PERICENTER":"68.0501","MEAN_MOTION_DOT":"0.00001812","OBJECT_ID":"2020-088A","LAUNCH_DATE":"2020-11-25","DECAY_DATE":null,"MEAN_ELEMENT_THEORY":"SGP4","SEMIMAJOR_AXIS":"6925.352","MEAN_MOTION_DDOT":"0.0000000000000","CLASSIFICATION_TYPE":"U","EPOCH":"2022-01-14T21:57:54.028224"},{"ELEMENT_SET_NO":"999","ECCENTRICITY":"0.00020790","RA_OF_ASC_NODE":"266.7777","NORAD_CAT_ID":"47124","MEAN_ANOMALY":"293.3933","FILE":"3273247","REV_AT_EPOCH":"6345","EPHEMERIS_TYPE":"0","OBJECT_NAME":"STARLINK-1785","APOAPSIS":"548.656","OBJECT_TYPE":"PAYLOAD","GP_ID":"193878575","TLE_LINE1":"1 47124U 20088C   22014.90089732  .00001310  00000-0  10682-3 0  9998","TIME_SYSTEM":"UTC","PERIOD":"95.592","REF_FRAME":"TEME","MEAN_MOTION":"15.06399011","BSTAR":"0.00010682000000","COUNTRY_CODE":"US","PERIAPSIS":"545.777","TLE_LINE2":"2 47124  53.0540 266.7777 0002079  66.7274 293.3933 15.06399011 63454","RCS_SIZE":"LARGE","INCLINATION":"53.0540","SITE":"AFETR","CENTER_NAME":"EARTH","ARG_OF_PERICENTER":"66.7274","MEAN_MOTION_DOT":"0.00001310","OBJECT_ID":"2020-088C","LAUNCH_DATE":"2020-11-25","DECAY_DATE":null,"MEAN_ELEMENT_THEORY":"SGP4","SEMIMAJOR_AXIS":"6925.352","MEAN_MOTION_DDOT":"0.0000000000000","CLASSIFICATION_TYPE":"U","EPOCH":"2022-01-14T21:37:17.528448"},{"EPHEMERIS_TYPE":"0","RA_OF_ASC_NODE":"261.5886","NORAD_CAT_ID":"47126","MEAN_ANOMALY":"296.7963","FILE":"3273247","REV_AT_EPOCH":"6353","ECCENTRICITY":"0.00023990","ELEMENT_SET_NO":"999","PERIOD":"95.592","GP_ID":"193878825","TLE_LINE1":"1 47126U 20088E   22014.94101438 -.00000112  00000-0  11392-4 0  9992","TIME_SYSTEM":"UTC","OBJECT_TYPE":"PAYLOAD","APOAPSIS":"548.883","OBJECT_NAME":"STARLINK-1812","INCLINATION":"53.0534","RCS_SIZE":"LARGE","SITE":"AFETR","PERIAPSIS":"545.561","TLE_LINE2":"2 47126  53.0534 261.5886 0002399  63.3271 296.7963 15.06397236 63534","COUNTRY_CODE":"US","BSTAR":"0.00001139200000","REF_FRAME":"TEME","MEAN_MOTION":"15.06397236","MEAN_MOTION_DDOT":"0.0000000000000","SEMIMAJOR_AXIS":"6925.357","EPOCH":"2022-01-14T22:35:03.642432","CLASSIFICATION_TYPE":"U","LAUNCH_DATE":"2020-11-25","MEAN_ELEMENT_THEORY":"SGP4","DECAY_DATE":null,"MEAN_MOTION_DOT":"-0.00000112","ARG_OF_PERICENTER":"63.3271","CENTER_NAME":"EARTH","OBJECT_ID":"2020-088E"}];
